QIANFAN-97              
1 66039U 25233G   25360.65862131  .00000037  00000+0  30819-4 0  9991
2 66039  88.9965  60.6872 0015037   8.0422 352.0975 13.63708202  9880
QIANFAN-98              
1 66040U 25233H   25360.75289352  .00000047  00000+0  31560-4 0  9997
2 66040  88.9941  60.5783 0014490   4.8880 355.2428 13.82579878  9952
QIANFAN-99              
1 66041U 25233J   25360.67783272  .00000034  00000+0  29656-4 0  9998
2 66041  88.9938  60.6987 0014997   5.4718 354.6600 13.60221600  9885
QIANFAN-100             
1 66042U 25233K   25360.64315937  .00000018  00000+0  60388-5 0  9995
2 66042  88.9954  60.6188 0015299   9.4584 350.6864 13.72635630  9926
QIANFAN-101             
1 66043U 25233L   25360.69374762  .00000244  00000+0  94850-4 0  9993
2 66043  88.9948  60.4224 0014343 358.6792   1.4362 14.26683790 10036
QIANFAN-102             
1 66044U 25233M   25360.64932588  .00000038  00000+0  30265-4 0  9996
2 66044  88.9947  60.6737 0014623   6.7111 353.4242 13.66799569  9898
QIANFAN-103             
1 66045U 25233N   25360.75672838  .00000033  00000+0  26889-4 0  9990
2 66045  88.9945  60.6889 0014865   6.9912 353.1450 13.62479012  9896
QIANFAN-104             
1 66046U 25233P   25360.72861941  .00000161  00000+0  16456-3 0  9993
2 66046  88.9951  60.6682 0014090  10.2464 349.8983 13.71544691  9906
