<?xml version="1.0" encoding="UTF-8"?>
<ndm xmlns:xsi="http://www.w3.org/2001/XMLSchema-instance" xsi:noNamespaceSchemaLocation="https://sanaregistry.org/r/ndmxml_unqualified/ndmxml-2.0.0-master-2.0.xsd">
<omm id="CCSDS_OMM_VERS" version="2.0">
<header><CREATION_DATE/><ORIGINATOR/></header><body><segment><metadata><OBJECT_NAME>QIANFAN-97</OBJECT_NAME><OBJECT_ID>2025-233G</OBJECT_ID><CENTER_NAME>EARTH</CENTER_NAME><REF_FRAME>TEME</REF_FRAME><TIME_SYSTEM>UTC</TIME_SYSTEM><MEAN_ELEMENT_THEORY>SGP4</MEAN_ELEMENT_THEORY></metadata><data><meanElements><EPOCH>2025-12-26T15:48:24.881184</EPOCH><MEAN_MOTION>13.63708202</MEAN_MOTION><ECCENTRICITY>.0015037</ECCENTRICITY><INCLINATION>88.9965</INCLINATION><RA_OF_ASC_NODE>60.6872</RA_OF_ASC_NODE><ARG_OF_PERICENTER>8.0422</ARG_OF_PERICENTER><MEAN_ANOMALY>352.0975</MEAN_ANOMALY></meanElements><tleParameters><EPHEMERIS_TYPE>0</EPHEMERIS_TYPE><CLASSIFICATION_TYPE>U</CLASSIFICATION_TYPE><NORAD_CAT_ID>66039</NORAD_CAT_ID><ELEMENT_SET_NO>999</ELEMENT_SET_NO><REV_AT_EPOCH>988</REV_AT_EPOCH><BSTAR>.30819E-4</BSTAR><MEAN_MOTION_DOT>.37E-6</MEAN_MOTION_DOT><MEAN_MOTION_DDOT>0</MEAN_MOTION_DDOT></tleParameters></data></segment></body></omm>
<omm id="CCSDS_OMM_VERS" version="2.0">
<header><CREATION_DATE/><ORIGINATOR/></header><body><segment><metadata><OBJECT_NAME>QIANFAN-98</OBJECT_NAME><OBJECT_ID>2025-233H</OBJECT_ID><CENTER_NAME>EARTH</CENTER_NAME><REF_FRAME>TEME</REF_FRAME><TIME_SYSTEM>UTC</TIME_SYSTEM><MEAN_ELEMENT_THEORY>SGP4</MEAN_ELEMENT_THEORY></metadata><data><meanElements><EPOCH>2025-12-26T18:04:10.000128</EPOCH><MEAN_MOTION>13.82579878</MEAN_MOTION><ECCENTRICITY>.001449</ECCENTRICITY><INCLINATION>88.9941</INCLINATION><RA_OF_ASC_NODE>60.5783</RA_OF_ASC_NODE><ARG_OF_PERICENTER>4.8880</ARG_OF_PERICENTER><MEAN_ANOMALY>355.2428</MEAN_ANOMALY></meanElements><tleParameters><EPHEMERIS_TYPE>0</EPHEMERIS_TYPE><CLASSIFICATION_TYPE>U</CLASSIFICATION_TYPE><NORAD_CAT_ID>66040</NORAD_CAT_ID><ELEMENT_SET_NO>999</ELEMENT_SET_NO><REV_AT_EPOCH>995</REV_AT_EPOCH><BSTAR>.3156E-4</BSTAR><MEAN_MOTION_DOT>.47E-6</MEAN_MOTION_DOT><MEAN_MOTION_DDOT>0</MEAN_MOTION_DDOT></tleParameters></data></segment></body></omm>
<omm id="CCSDS_OMM_VERS" version="2.0">
<header><CREATION_DATE/><ORIGINATOR/></header><body><segment><metadata><OBJECT_NAME>QIANFAN-99</OBJECT_NAME><OBJECT_ID>2025-233J</OBJECT_ID><CENTER_NAME>EARTH</CENTER_NAME><REF_FRAME>TEME</REF_FRAME><TIME_SYSTEM>UTC</TIME_SYSTEM><MEAN_ELEMENT_THEORY>SGP4</MEAN_ELEMENT_THEORY></metadata><data><meanElements><EPOCH>2025-12-26T16:16:04.747008</EPOCH><MEAN_MOTION>13.60221600</MEAN_MOTION><ECCENTRICITY>.0014997</ECCENTRICITY><INCLINATION>88.9938</INCLINATION><RA_OF_ASC_NODE>60.6987</RA_OF_ASC_NODE><ARG_OF_PERICENTER>5.4718</ARG_OF_PERICENTER><MEAN_ANOMALY>354.6600</MEAN_ANOMALY></meanElements><tleParameters><EPHEMERIS_TYPE>0</EPHEMERIS_TYPE><CLASSIFICATION_TYPE>U</CLASSIFICATION_TYPE><NORAD_CAT_ID>66041</NORAD_CAT_ID><ELEMENT_SET_NO>999</ELEMENT_SET_NO><REV_AT_EPOCH>988</REV_AT_EPOCH><BSTAR>.29656E-4</BSTAR><MEAN_MOTION_DOT>.34E-6</MEAN_MOTION_DOT><MEAN_MOTION_DDOT>0</MEAN_MOTION_DDOT></tleParameters></data></segment></body></omm>
<omm id="CCSDS_OMM_VERS" version="2.0">
<header><CREATION_DATE/><ORIGINATOR/></header><body><segment><metadata><OBJECT_NAME>QIANFAN-100</OBJECT_NAME><OBJECT_ID>2025-233K</OBJECT_ID><CENTER_NAME>EARTH</CENTER_NAME><REF_FRAME>TEME</REF_FRAME><TIME_SYSTEM>UTC</TIME_SYSTEM><MEAN_ELEMENT_THEORY>SGP4</MEAN_ELEMENT_THEORY></metadata><data><meanElements><EPOCH>2025-12-26T15:26:08.969568</EPOCH><MEAN_MOTION>13.72635630</MEAN_MOTION><ECCENTRICITY>.0015299</ECCENTRICITY><INCLINATION>88.9954</INCLINATION><RA_OF_ASC_NODE>60.6188</RA_OF_ASC_NODE><ARG_OF_PERICENTER>9.4584</ARG_OF_PERICENTER><MEAN_ANOMALY>350.6864</MEAN_ANOMALY></meanElements><tleParameters><EPHEMERIS_TYPE>0</EPHEMERIS_TYPE><CLASSIFICATION_TYPE>U</CLASSIFICATION_TYPE><NORAD_CAT_ID>66042</NORAD_CAT_ID><ELEMENT_SET_NO>999</ELEMENT_SET_NO><REV_AT_EPOCH>992</REV_AT_EPOCH><BSTAR>.60388E-5</BSTAR><MEAN_MOTION_DOT>.18E-6</MEAN_MOTION_DOT><MEAN_MOTION_DDOT>0</MEAN_MOTION_DDOT></tleParameters></data></segment></body></omm>
<omm id="CCSDS_OMM_VERS" version="2.0">
<header><CREATION_DATE/><ORIGINATOR/></header><body><segment><metadata><OBJECT_NAME>QIANFAN-101</OBJECT_NAME><OBJECT_ID>2025-233L</OBJECT_ID><CENTER_NAME>EARTH</CENTER_NAME><REF_FRAME>TEME</REF_FRAME><TIME_SYSTEM>UTC</TIME_SYSTEM><MEAN_ELEMENT_THEORY>SGP4</MEAN_ELEMENT_THEORY></metadata><data><meanElements><EPOCH>2025-12-26T16:38:59.794368</EPOCH><MEAN_MOTION>14.26683790</MEAN_MOTION><ECCENTRICITY>.0014343</ECCENTRICITY><INCLINATION>88.9948</INCLINATION><RA_OF_ASC_NODE>60.4224</RA_OF_ASC_NODE><ARG_OF_PERICENTER>358.6792</ARG_OF_PERICENTER><MEAN_ANOMALY>1.4362</MEAN_ANOMALY></meanElements><tleParameters><EPHEMERIS_TYPE>0</EPHEMERIS_TYPE><CLASSIFICATION_TYPE>U</CLASSIFICATION_TYPE><NORAD_CAT_ID>66043</NORAD_CAT_ID><ELEMENT_SET_NO>999</ELEMENT_SET_NO><REV_AT_EPOCH>1003</REV_AT_EPOCH><BSTAR>.9485E-4</BSTAR><MEAN_MOTION_DOT>.244E-5</MEAN_MOTION_DOT><MEAN_MOTION_DDOT>0</MEAN_MOTION_DDOT></tleParameters></data></segment></body></omm>
<omm id="CCSDS_OMM_VERS" version="2.0">
<header><CREATION_DATE/><ORIGINATOR/></header><body><segment><metadata><OBJECT_NAME>QIANFAN-102</OBJECT_NAME><OBJECT_ID>2025-233M</OBJECT_ID><CENTER_NAME>EARTH</CENTER_NAME><REF_FRAME>TEME</REF_FRAME><TIME_SYSTEM>UTC</TIME_SYSTEM><MEAN_ELEMENT_THEORY>SGP4</MEAN_ELEMENT_THEORY></metadata><data><meanElements><EPOCH>2025-12-26T15:35:01.756032</EPOCH><MEAN_MOTION>13.66799569</MEAN_MOTION><ECCENTRICITY>.0014623</ECCENTRICITY><INCLINATION>88.9947</INCLINATION><RA_OF_ASC_NODE>60.6737</RA_OF_ASC_NODE><ARG_OF_PERICENTER>6.7111</ARG_OF_PERICENTER><MEAN_ANOMALY>353.4242</MEAN_ANOMALY></meanElements><tleParameters><EPHEMERIS_TYPE>0</EPHEMERIS_TYPE><CLASSIFICATION_TYPE>U</CLASSIFICATION_TYPE><NORAD_CAT_ID>66044</NORAD_CAT_ID><ELEMENT_SET_NO>999</ELEMENT_SET_NO><REV_AT_EPOCH>989</REV_AT_EPOCH><BSTAR>.30265E-4</BSTAR><MEAN_MOTION_DOT>.38E-6</MEAN_MOTION_DOT><MEAN_MOTION_DDOT>0</MEAN_MOTION_DDOT></tleParameters></data></segment></body></omm>
<omm id="CCSDS_OMM_VERS" version="2.0">
<header><CREATION_DATE/><ORIGINATOR/></header><body><segment><metadata><OBJECT_NAME>QIANFAN-103</OBJECT_NAME><OBJECT_ID>2025-233N</OBJECT_ID><CENTER_NAME>EARTH</CENTER_NAME><REF_FRAME>TEME</REF_FRAME><TIME_SYSTEM>UTC</TIME_SYSTEM><MEAN_ELEMENT_THEORY>SGP4</MEAN_ELEMENT_THEORY></metadata><data><meanElements><EPOCH>2025-12-26T18:09:41.332032</EPOCH><MEAN_MOTION>13.62479012</MEAN_MOTION><ECCENTRICITY>.0014865</ECCENTRICITY><INCLINATION>88.9945</INCLINATION><RA_OF_ASC_NODE>60.6889</RA_OF_ASC_NODE><ARG_OF_PERICENTER>6.9912</ARG_OF_PERICENTER><MEAN_ANOMALY>353.1450</MEAN_ANOMALY></meanElements><tleParameters><EPHEMERIS_TYPE>0</EPHEMERIS_TYPE><CLASSIFICATION_TYPE>U</CLASSIFICATION_TYPE><NORAD_CAT_ID>66045</NORAD_CAT_ID><ELEMENT_SET_NO>999</ELEMENT_SET_NO><REV_AT_EPOCH>989</REV_AT_EPOCH><BSTAR>.26889E-4</BSTAR><MEAN_MOTION_DOT>.33E-6</MEAN_MOTION_DOT><MEAN_MOTION_DDOT>0</MEAN_MOTION_DDOT></tleParameters></data></segment></body></omm>
<omm id="CCSDS_OMM_VERS" version="2.0">
<header><CREATION_DATE/><ORIGINATOR/></header><body><segment><metadata><OBJECT_NAME>QIANFAN-104</OBJECT_NAME><OBJECT_ID>2025-233P</OBJECT_ID><CENTER_NAME>EARTH</CENTER_NAME><REF_FRAME>TEME</REF_FRAME><TIME_SYSTEM>UTC</TIME_SYSTEM><MEAN_ELEMENT_THEORY>SGP4</MEAN_ELEMENT_THEORY></metadata><data><meanElements><EPOCH>2025-12-26T17:29:12.717024</EPOCH><MEAN_MOTION>13.71544691</MEAN_MOTION><ECCENTRICITY>.001409</ECCENTRICITY><INCLINATION>88.9951</INCLINATION><RA_OF_ASC_NODE>60.6682</RA_OF_ASC_NODE><ARG_OF_PERICENTER>10.2464</ARG_OF_PERICENTER><MEAN_ANOMALY>349.8983</MEAN_ANOMALY></meanElements><tleParameters><EPHEMERIS_TYPE>0</EPHEMERIS_TYPE><CLASSIFICATION_TYPE>U</CLASSIFICATION_TYPE><NORAD_CAT_ID>66046</NORAD_CAT_ID><ELEMENT_SET_NO>999</ELEMENT_SET_NO><REV_AT_EPOCH>990</REV_AT_EPOCH><BSTAR>.16456E-3</BSTAR><MEAN_MOTION_DOT>.161E-5</MEAN_MOTION_DOT><MEAN_MOTION_DDOT>0</MEAN_MOTION_DDOT></tleParameters></data></segment></body></omm>

</ndm>
